IRIDIUM 159             
1 43578U 18061K   25077.89687935  .00000022  00000+0  64467-6 0  9995
2 43578  86.3929 246.9148 0002080  97.8058 262.3373 14.34217628348129
IRIDIUM 180             
1 43922U 19002A   25077.82660763  .00000098  00000+0  28107-4 0  9999
2 43922  86.4048 183.8938 0002235  96.9974 263.1476 14.34216761323729
IRIDIUM 176             
1 43923U 19002B   25077.84331794  .00003736  00000+0  58806-3 0  9991
2 43923  86.6168 183.8869 0002741  98.0850 262.0678 14.72276678332251
IRIDIUM 168             
1 43924U 19002C   25077.82026498  .00000765  00000+0  26625-3 0  9995
2 43924  86.4051 183.9608 0002175  99.7310 260.4132 14.34219197323701
IRIDIUM 173             
1 43925U 19002D   25077.80757869  .00000829  00000+0  28909-3 0  9995
2 43925  86.4045 183.8732 0002264  92.0320 268.1135 14.34218779323688
IRIDIUM 169             
1 43926U 19002E   25077.87083113  .00001182  00000+0  37979-3 0  9997
2 43926  86.4257 215.4165 0003092  65.4347 294.7173 14.38630007324762
IRIDIUM 172             
1 43927U 19002F   25077.80123738  .00000527  00000+0  18128-3 0  9996
2 43927  86.4046 183.8828 0002288  99.5139 260.6316 14.34217778323690
IRIDIUM 175             
1 43928U 19002G   25077.83810656  .00002698  00000+0  42413-3 0  9997
2 43928  86.1529 141.5765 0001939  66.0363 294.1056 14.72228596332241
